{"type": "FeatureCollection", "features": [ {"type": "Feature", "properties": {"norad_id": 30396, "name": "FENGYUN 1C DEB", "group": "fengyun-1c-debris", "lat": -79.30512230577283, "lon": 117.79910318551408, "alt_km": 996.6853464017777, "timestamp": "2025-12-08T10:52:03.223800+00:00", "meta": {"OBJECT_NAME": "FENGYUN 1C DEB", "OBJECT_ID": "1999-025ADK", "EPOCH": "2025-12-07T23:29:38.425344", "MEAN_MOTION": 13.87166584, "ECCENTRICITY": 0.01348375, "INCLINATION": 98.224, "RA_OF_ASC_NODE": 347.3556, "ARG_OF_PERICENTER": 142.8146, "MEAN_ANOMALY": 273.7512, "EPHEMERIS_TYPE": 0, "CLASSIFICATION_TYPE": "U", "NORAD_CAT_ID": 30396, "ELEMENT_SET_NO": 999, "REV_AT_EPOCH": 95513, "BSTAR": 0.00015441248, "MEAN_MOTION_DOT": 1.59e-06, "MEAN_MOTION_DDOT": 0}, "tle": {"line1": "1 30396U 99025ADK 25341.97891696  .00000159  00000+0  15441-3 0  9998", "line2": "2 30396  98.2240 347.3556 0134837 142.8146 273.7512 13.87166584955132"}}, "geometry": {"type": "Point", "coordinates": [117.79910318551408, -79.30512230577283]}}, {"type": "Feature", "properties": {"norad_id": 30397, "name": "FENGYUN 1C DEB", "group": "fengyun-1c-debris", "lat": -29.333054104891676, "lon": 135.77687303332445, "alt_km": 979.6727815385748, "timestamp": "2025-12-08T10:52:03.223810+00:00", "meta": {"OBJECT_NAME": "FENGYUN 1C DEB", "OBJECT_ID": "1999-025ADL", "EPOCH": "2025-12-07T23:32:49.911072", "MEAN_MOTION": 13.98564613, "ECCENTRICITY": 0.01497305, "INCLINATION": 98.4064, "RA_OF_ASC_NODE": 130.5777, "ARG_OF_PERICENTER": 105.9059, "MEAN_ANOMALY": 12.239, "EPHEMERIS_TYPE": 0, "CLASSIFICATION_TYPE": "U", "NORAD_CAT_ID": 30397, "ELEMENT_SET_NO": 999, "REV_AT_EPOCH": 95698, "BSTAR": 0.0014414734, "MEAN_MOTION_DOT": 2.238e-05, "MEAN_MOTION_DDOT": 0}, "tle": {"line1": "1 30397U 99025ADL 25341.98113323  .00002238  00000+0  14415-2 0  9993", "line2": "2 30397  98.4064 130.5777 0149730 105.9059  12.2390 13.98564613956988"}}, "geometry": {"type": "Point", "coordinates": [135.77687303332445, -29.333054104891676]}}, {"type": "Feature", "properties": {"norad_id": 30398, "name": "FENGYUN 1C DEB", "group": "fengyun-1c-debris", "lat": -24.5738722314583, "lon": -116.63773898366486, "alt_km": 861.1290247911238, "timestamp": "2025-12-08T10:52:03.223820+00:00", "meta": {"OBJECT_NAME": "FENGYUN 1C DEB", "OBJECT_ID": "1999-025ADM", "EPOCH": "2025-12-07T15:57:59.349600", "MEAN_MOTION": 13.78689469, "ECCENTRICITY": 0.01730205, "INCLINATION": 99.7142, "RA_OF_ASC_NODE": 238.0631, "ARG_OF_PERICENTER": 309.2985, "MEAN_ANOMALY": 78.1809, "EPHEMERIS_TYPE": 0, "CLASSIFICATION_TYPE": "U", "NORAD_CAT_ID": 30398, "ELEMENT_SET_NO": 999, "REV_AT_EPOCH": 94687, "BSTAR": 0.00088016631, "MEAN_MOTION_DOT": 9.51e-06, "MEAN_MOTION_DDOT": 0}, "tle": {"line1": "1 30398U 99025ADM 25341.66527025  .00000951  00000+0  88017-3 0  9997", "line2": "2 30398  99.7142 238.0631 0173020 309.2985  78.1809 13.78689469946877"}}, "geometry": {"type": "Point", "coordinates": [-116.63773898366486, -24.5738722314583]}}, {"type": "Feature", "properties": {"norad_id": 30400, "name": "FENGYUN 1C DEB", "group": "fengyun-1c-debris", "lat": 39.76393269093835, "lon": -97.81724104256125, "alt_km": 754.6467303718146, "timestamp": "2025-12-08T10:52:03.223831+00:00", "meta": {"OBJECT_NAME": "FENGYUN 1C DEB", "OBJECT_ID": "1999-025ADP", "EPOCH": "2025-12-07T06:27:26.308800", "MEAN_MOTION": 14.09810295, "ECCENTRICITY": 0.02279588, "INCLINATION": 99.1566, "RA_OF_ASC_NODE": 268.6906, "ARG_OF_PERICENTER": 350.9798, "MEAN_ANOMALY": 162.6999, "EPHEMERIS_TYPE": 0, "CLASSIFICATION_TYPE": "U", "NORAD_CAT_ID": 30400, "ELEMENT_SET_NO": 999, "REV_AT_EPOCH": 95437, "BSTAR": 0.0070576692, "MEAN_MOTION_DOT": 0.00015778, "MEAN_MOTION_DDOT": 0}, "tle": {"line1": "1 30400U 99025ADP 25341.26905450  .00015778  00000+0  70577-2 0  9993", "line2": "2 30400  99.1566 268.6906 0227958 350.9798 162.6999 14.09810295954375"}}, "geometry": {"type": "Point", "coordinates": [-97.81724104256125, 39.76393269093835]}}, {"type": "Feature", "properties": {"norad_id": 30401, "name": "FENGYUN 1C DEB", "group": "fengyun-1c-debris", "lat": 36.978405319616144, "lon": 46.049622480711825, "alt_km": 718.5639410377489, "timestamp": "2025-12-08T10:52:03.223840+00:00", "meta": {"OBJECT_NAME": "FENGYUN 1C DEB", "OBJECT_ID": "1999-025ADQ", "EPOCH": "2025-12-07T22:26:07.311840", "MEAN_MOTION": 14.27985602, "ECCENTRICITY": 0.01076785, "INCLINATION": 98.9474, "RA_OF_ASC_NODE": 218.7063, "ARG_OF_PERICENTER": 141.3331, "MEAN_ANOMALY": 219.5622, "EPHEMERIS_TYPE": 0, "CLASSIFICATION_TYPE": "U", "NORAD_CAT_ID": 30401, "ELEMENT_SET_NO": 999, "REV_AT_EPOCH": 98235, "BSTAR": 0.00022070783, "MEAN_MOTION_DOT": 5.37e-06, "MEAN_MOTION_DDOT": 0}, "tle": {"line1": "1 30401U 99025ADQ 25341.93480685  .00000537  00000+0  22071-3 0  9990", "line2": "2 30401  98.9474 218.7063 0107678 141.3331 219.5622 14.27985602982351"}}, "geometry": {"type": "Point", "coordinates": [46.049622480711825, 36.978405319616144]}}, {"type": "Feature", "properties": {"norad_id": 30403, "name": "FENGYUN 1C DEB", "group": "fengyun-1c-debris", "lat": 52.38739759815691, "lon": 48.81367617013817, "alt_km": 763.9861670246419, "timestamp": "2025-12-08T10:52:03.223850+00:00", "meta": {"OBJECT_NAME": "FENGYUN 1C DEB", "OBJECT_ID": "1999-025ADS", "EPOCH": "2025-12-07T21:06:23.505408", "MEAN_MOTION": 14.21472529, "ECCENTRICITY": 0.00749803, "INCLINATION": 99.0596, "RA_OF_ASC_NODE": 60.1773, "ARG_OF_PERICENTER": 37.2297, "MEAN_ANOMALY": 323.4044, "EPHEMERIS_TYPE": 0, "CLASSIFICATION_TYPE": "U", "NORAD_CAT_ID": 30403, "ELEMENT_SET_NO": 999, "REV_AT_EPOCH": 96737, "BSTAR": 0.0024339551, "MEAN_MOTION_DOT": 5.435e-05, "MEAN_MOTION_DDOT": 0}, "tle": {"line1": "1 30403U 99025ADS 25341.87943872  .00005435  00000+0  24340-2 0  9999", "line2": "2 30403  99.0596  60.1773 0074980  37.2297 323.4044 14.21472529967371"}}, "geometry": {"type": "Point", "coordinates": [48.81367617013817, 52.38739759815691]}}, {"type": "Feature", "properties": {"norad_id": 30404, "name": "FENGYUN 1C DEB", "group": "fengyun-1c-debris", "lat": 17.406157401313667, "lon": 71.26748257576344, "alt_km": 1302.0571976769397, "timestamp": "2025-12-08T10:52:03.223860+00:00", "meta": {"OBJECT_NAME": "FENGYUN 1C DEB", "OBJECT_ID": "1999-025ADT", "EPOCH": "2025-11-30T17:24:43.426368", "MEAN_MOTION": 13.34313011, "ECCENTRICITY": 0.03760074, "INCLINATION": 99.8332, "RA_OF_ASC_NODE": 66.9455, "ARG_OF_PERICENTER": 165.4409, "MEAN_ANOMALY": 195.791, "EPHEMERIS_TYPE": 0, "CLASSIFICATION_TYPE": "U", "NORAD_CAT_ID": 30404, "ELEMENT_SET_NO": 999, "REV_AT_EPOCH": 57876, "BSTAR": 0.0014039979, "MEAN_MOTION_DOT": 1.003e-05, "MEAN_MOTION_DDOT": 0}, "tle": {"line1": "1 30404U 99025ADT 25334.72550262  .00001003  00000+0  14040-2 0  9996", "line2": "2 30404  99.8332  66.9455 0376007 165.4409 195.7910 13.34313011578769"}}, "geometry": {"type": "Point", "coordinates": [71.26748257576344, 17.406157401313667]}}, {"type": "Feature", "properties": {"norad_id": 30405, "name": "FENGYUN 1C DEB", "group": "fengyun-1c-debris", "lat": 62.47281823353157, "lon": -86.31734334907009, "alt_km": 765.4553469065268, "timestamp": "2025-12-08T10:52:03.223871+00:00", "meta": {"OBJECT_NAME": "FENGYUN 1C DEB", "OBJECT_ID": "1999-025ADU", "EPOCH": "2025-12-07T22:50:54.522816", "MEAN_MOTION": 14.28851412, "ECCENTRICITY": 0.00515502, "INCLINATION": 98.7945, "RA_OF_ASC_NODE": 75.8978, "ARG_OF_PERICENTER": 167.4137, "MEAN_ANOMALY": 254.6081, "EPHEMERIS_TYPE": 0, "CLASSIFICATION_TYPE": "U", "NORAD_CAT_ID": 30405, "ELEMENT_SET_NO": 999, "REV_AT_EPOCH": 97327, "BSTAR": 0.0024229197, "MEAN_MOTION_DOT": 6.159e-05, "MEAN_MOTION_DDOT": 0}, "tle": {"line1": "1 30405U 99025ADU 25341.95201994  .00006159  00000+0  24229-2 0  9992", "line2": "2 30405  98.7945  75.8978 0051550 167.4137 254.6081 14.28851412973275"}}, "geometry": {"type": "Point", "coordinates": [-86.31734334907009, 62.47281823353157]}}, {"type": "Feature", "properties": {"norad_id": 30406, "name": "FENGYUN 1C DEB", "group": "fengyun-1c-debris", "lat": 73.30892406606301, "lon": -156.7655226266582, "alt_km": 937.345884257903, "timestamp": "2025-12-08T10:52:03.223881+00:00", "meta": {"OBJECT_NAME": "FENGYUN 1C DEB", "OBJECT_ID": "1999-025ADV", "EPOCH": "2025-12-07T15:13:02.555040", "MEAN_MOTION": 13.59182094, "ECCENTRICITY": 0.02830481, "INCLINATION": 98.6203, "RA_OF_ASC_NODE": 232.9039, "ARG_OF_PERICENTER": 13.0322, "MEAN_ANOMALY": 15.645, "EPHEMERIS_TYPE": 0, "CLASSIFICATION_TYPE": "U", "NORAD_CAT_ID": 30406, "ELEMENT_SET_NO": 999, "REV_AT_EPOCH": 93097, "BSTAR": 0.0035500931, "MEAN_MOTION_DOT": 3.365e-05, "MEAN_MOTION_DDOT": 0}, "tle": {"line1": "1 30406U 99025ADV 25341.63405735  .00003365  00000+0  35501-2 0  9998", "line2": "2 30406  98.6203 232.9039 0283048  13.0322  15.6450 13.59182094930978"}}, "geometry": {"type": "Point", "coordinates": [-156.7655226266582, 73.30892406606301]}}, {"type": "Feature", "properties": {"norad_id": 30409, "name": "FENGYUN 1C DEB", "group": "fengyun-1c-debris", "lat": -27.798054923482937, "lon": 145.61944816838928, "alt_km": 1006.7147213706894, "timestamp": "2025-12-08T10:52:03.223891+00:00", "meta": {"OBJECT_NAME": "FENGYUN 1C DEB", "OBJECT_ID": "1999-025ADY", "EPOCH": "2025-12-07T10:39:05.341248", "MEAN_MOTION": 14.03706793, "ECCENTRICITY": 0.0168143, "INCLINATION": 98.4725, "RA_OF_ASC_NODE": 329.1855, "ARG_OF_PERICENTER": 20.5036, "MEAN_ANOMALY": 131.8722, "EPHEMERIS_TYPE": 0, "CLASSIFICATION_TYPE": "U", "NORAD_CAT_ID": 30409, "ELEMENT_SET_NO": 999, "REV_AT_EPOCH": 96355, "BSTAR": 0.0015126482, "MEAN_MOTION_DOT": 2.657e-05, "MEAN_MOTION_DDOT": 0}, "tle": {"line1": "1 30409U 99025ADY 25341.44381182  .00002657  00000+0  15126-2 0  9993", "line2": "2 30409  98.4725 329.1855 0168143  20.5036 131.8722 14.03706793963557"}}, "geometry": {"type": "Point", "coordinates": [145.61944816838928, -27.798054923482937]}}]}